<?xml version="1.0"?>
<gpx version="1.1" creator="Xcode">
    <wpt lat="25.0519" lon="121.5135">
        <name>Taipei 101</name>
    </wpt>
</gpx>
<!--<?xml version="1.0"?>-->
<!--<gpx version="1.1" creator="Xcode">-->
<!--    <wpt lat="25.03361" lon="121.56444">-->
<!--        <name>Taipei 101</name>-->
<!--    </wpt>-->
<!--</gpx>
22.98677, 120.19870-->

<!--<wpt lat="22.98677" lon="120.19870"> 台南-->

<!--<wpt lat="25.067433" lon="121.537183">  濱江>-->
<!--<wpt lat="25.0519" lon="121.5135">  天水路>-->
<!--<wpt lat="22.640084" lon="120.322414">  高雄>-->



